CTC2_L_00400001-01
1 46154U 26758KT  26070.40847222  .00000000  00000+0  00000-0 0  9991
2 46154  70.0000   0.0000 0000000   0.0000   0.0000 12.77881384    19
CTC2_L_00400001-02
1 46155U 26279PG  26070.40847222  .00000000  00000+0  00000-0 0  9990
2 46155  70.0000   0.0000 0000000   0.0000  90.0000 12.77881384    19
CTC2_L_00400001-03
1 46156U 22374RU  26070.40847222  .00000000  00000+0  00000-0 0  9993
2 46156  70.0000   0.0000 0000000   0.0000 180.0000 12.77881384    10
CTC2_L_00400001-04
1 46157U 22539VZ  26070.40847222  .00000000  00000+0  00000-0 0  9997
2 46157  70.0000   0.0000 0000000   0.0000 270.0000 12.77881384    11
CTC2_L_00400002-01
1 46158U 25830WO  26070.40847222  .00000000  00000+0  00000-0 0  9995
2 46158  70.0000  12.0000 0000000   0.0000  12.0000 12.77881384    19
CTC2_L_00400002-02
1 46159U 24214FA  26070.40847222  .00000000  00000+0  00000-0 0  9991
2 46159  70.0000  12.0000 0000000   0.0000 102.0000 12.77881384    10
CTC2_L_00400002-03
1 46160U 25722WG  26070.40847222  .00000000  00000+0  00000-0 0  9998
2 46160  70.0000  12.0000 0000000   0.0000 192.0000 12.77881384    11
CTC2_L_00400002-04
1 46161U 23506LU  26070.40847222  .00000000  00000+0  00000-0 0  9997
2 46161  70.0000  12.0000 0000000   0.0000 282.0000 12.77881384    12
CTC2_L_00400003-01
1 46162U 26544SK  26070.40847222  .00000000  00000+0  00000-0 0  9993
2 46162  70.0000  24.0000 0000000   0.0000  24.0000 12.77881384    10
CTC2_L_00400003-02
1 46163U 26814QL  26070.40847222  .00000000  00000+0  00000-0 0  9994
2 46163  70.0000  24.0000 0000000   0.0000 114.0000 12.77881384    11
CTC2_L_00400003-03
1 46164U 26971II  26070.40847222  .00000000  00000+0  00000-0 0  9999
2 46164  70.0000  24.0000 0000000   0.0000 204.0000 12.77881384    12
CTC2_L_00400003-04
1 46165U 24240OO  26070.40847222  .00000000  00000+0  00000-0 0  9997
2 46165  70.0000  24.0000 0000000   0.0000 294.0000 12.77881384    12
CTC2_L_00400004-01
1 46166U 23857OS  26070.40847222  .00000000  00000+0  00000-0 0  9991
2 46166  70.0000  36.0000 0000000   0.0000  36.0000 12.77881384    10
CTC2_L_00400004-02
1 46167U 25148JU  26070.40847222  .00000000  00000+0  00000-0 0  9997
2 46167  70.0000  36.0000 0000000   0.0000 126.0000 12.77881384    11
CTC2_L_00400004-03
1 46168U 23371BL  26070.40847222  .00000000  00000+0  00000-0 0  9994
2 46168  70.0000  36.0000 0000000   0.0000 216.0000 12.77881384    12
CTC2_L_00400004-04
1 46169U 24989GV  26070.40847222  .00000000  00000+0  00000-0 0  9991
2 46169  70.0000  36.0000 0000000   0.0000 306.0000 12.77881384    13
CTC2_L_00400005-01
1 46170U 22108XA  26070.40847222  .00000000  00000+0  00000-0 0  9994
2 46170  70.0000  48.0000 0000000   0.0000  48.0000 12.77881384    11
CTC2_L_00400005-02
1 46171U 25533PR  26070.40847222  .00000000  00000+0  00000-0 0  9990
2 46171  70.0000  48.0000 0000000   0.0000 138.0000 12.77881384    12
CTC2_L_00400005-03
1 46172U 25151EA  26070.40847222  .00000000  00000+0  00000-0 0  9997
2 46172  70.0000  48.0000 0000000   0.0000 228.0000 12.77881384    13
CTC2_L_00400005-04
1 46173U 22537WB  26070.40847222  .00000000  00000+0  00000-0 0  9993
2 46173  70.0000  48.0000 0000000   0.0000 318.0000 12.77881384    14
CTC2_L_00400006-01
1 46174U 22774YF  26070.40847222  .00000000  00000+0  00000-0 0  9997
2 46174  70.0000  60.0000 0000000   0.0000  60.0000 12.77881384    13
CTC2_L_00400006-02
1 46175U 24356JH  26070.40847222  .00000000  00000+0  00000-0 0  9996
2 46175  70.0000  60.0000 0000000   0.0000 150.0000 12.77881384    14
CTC2_L_00400006-03
1 46176U 25280DI  26070.40847222  .00000000  00000+0  00000-0 0  9994
2 46176  70.0000  60.0000 0000000   0.0000 240.0000 12.77881384    15
CTC2_L_00400006-04
1 46177U 24091L   26070.40847222  .00000000  00000+0  00000-0 0  9994
2 46177  70.0000  60.0000 0000000   0.0000 330.0000 12.77881384    16
CTC2_L_00400007-01
1 46178U 26336QO  26070.40847222  .00000000  00000+0  00000-0 0  9999
2 46178  70.0000  72.0000 0000000   0.0000  72.0000 12.77881384    13
CTC2_L_00400007-02
1 46179U 25568MC  26070.40847222  .00000000  00000+0  00000-0 0  9996
2 46179  70.0000  72.0000 0000000   0.0000 162.0000 12.77881384    14
CTC2_L_00400007-03
1 46180U 23432CA  26070.40847222  .00000000  00000+0  00000-0 0  9996
2 46180  70.0000  72.0000 0000000   0.0000 252.0000 12.77881384    16
CTC2_L_00400007-04
1 46181U 25497PP  26070.40847222  .00000000  00000+0  00000-0 0  9990
2 46181  70.0000  72.0000 0000000   0.0000 342.0000 12.77881384    17
CTC2_L_00400008-01
1 46182U 22191MN  26070.40847222  .00000000  00000+0  00000-0 0  9999
2 46182  70.0000  84.0000 0000000   0.0000  84.0000 12.77881384    14
CTC2_L_00400008-02
1 46183U 23426DY  26070.40847222  .00000000  00000+0  00000-0 0  9992
2 46183  70.0000  84.0000 0000000   0.0000 174.0000 12.77881384    15
CTC2_L_00400008-03
1 46184U 25696CT  26070.40847222  .00000000  00000+0  00000-0 0  9994
2 46184  70.0000  84.0000 0000000   0.0000 264.0000 12.77881384    16
CTC2_L_00400008-04
1 46185U 22773DK  26070.40847222  .00000000  00000+0  00000-0 0  9998
2 46185  70.0000  84.0000 0000000   0.0000 354.0000 12.77881384    17
CTC2_L_00400009-01
1 46186U 26239RM  26070.40847222  .00000000  00000+0  00000-0 0  9990
2 46186  70.0000  96.0000 0000000   0.0000  96.0000 12.77881384    14
CTC2_L_00400009-02
1 46187U 26284DR  26070.40847222  .00000000  00000+0  00000-0 0  9991
2 46187  70.0000  96.0000 0000000   0.0000 186.0000 12.77881384    15
CTC2_L_00400009-03
1 46188U 24793QT  26070.40847222  .00000000  00000+0  00000-0 0  9995
2 46188  70.0000  96.0000 0000000   0.0000 276.0000 12.77881384    16
CTC2_L_00400009-04
1 46189U 22386ZR  26070.40847222  .00000000  00000+0  00000-0 0  9992
2 46189  70.0000  96.0000 0000000   0.0000   6.0000 12.77881384    18
CTC2_L_00400010-01
1 46190U 23044HF  26070.40847222  .00000000  00000+0  00000-0 0  9996
2 46190  70.0000 108.0000 0000000   0.0000 108.0000 12.77881384    17
CTC2_L_00400010-02
1 46191U 23629CY  26070.40847222  .00000000  00000+0  00000-0 0  9996
2 46191  70.0000 108.0000 0000000   0.0000 198.0000 12.77881384    17
CTC2_L_00400010-03
1 46192U 25438PD  26070.40847222  .00000000  00000+0  00000-0 0  9997
2 46192  70.0000 108.0000 0000000   0.0000 288.0000 12.77881384    18
CTC2_L_00400010-04
1 46193U 23703HV  26070.40847222  .00000000  00000+0  00000-0 0  9991
2 46193  70.0000 108.0000 0000000   0.0000  18.0000 12.77881384    10
CTC2_L_00400011-01
1 46194U 23187TZ  26070.40847222  .00000000  00000+0  00000-0 0  9998
2 46194  70.0000 120.0000 0000000   0.0000 120.0000 12.77881384    19
CTC2_L_00400011-02
1 46195U 23715CB  26070.40847222  .00000000  00000+0  00000-0 0  9996
2 46195  70.0000 120.0000 0000000   0.0000 210.0000 12.77881384    10
CTC2_L_00400011-03
1 46196U 25213KF  26070.40847222  .00000000  00000+0  00000-0 0  9992
2 46196  70.0000 120.0000 0000000   0.0000 300.0000 12.77881384    11
CTC2_L_00400011-04
1 46197U 25739DO  26070.40847222  .00000000  00000+0  00000-0 0  9996
2 46197  70.0000 120.0000 0000000   0.0000  30.0000 12.77881384    12
CTC2_L_00400012-01
1 46198U 23977HS  26070.40847222  .00000000  00000+0  00000-0 0  9999
2 46198  70.0000 132.0000 0000000   0.0000 132.0000 12.77881384    19
CTC2_L_00400012-02
1 46199U 26892PZ  26070.40847222  .00000000  00000+0  00000-0 0  9999
2 46199  70.0000 132.0000 0000000   0.0000 222.0000 12.77881384    10
CTC2_L_00400012-03
1 46200U 24007SL  26070.40847222  .00000000  00000+0  00000-0 0  9998
2 46200  70.0000 132.0000 0000000   0.0000 312.0000 12.77881384    13
CTC2_L_00400012-04
1 46201U 25987QC  26070.40847222  .00000000  00000+0  00000-0 0  9997
2 46201  70.0000 132.0000 0000000   0.0000  42.0000 12.77881384    14
CTC2_L_00400013-01
1 46202U 24316UX  26070.40847222  .00000000  00000+0  00000-0 0  9993
2 46202  70.0000 144.0000 0000000   0.0000 144.0000 12.77881384    11
CTC2_L_00400013-02
1 46203U 26428WK  26070.40847222  .00000000  00000+0  00000-0 0  9990
2 46203  70.0000 144.0000 0000000   0.0000 234.0000 12.77881384    12
CTC2_L_00400013-03
1 46204U 25379CS  26070.40847222  .00000000  00000+0  00000-0 0  9995
2 46204  70.0000 144.0000 0000000   0.0000 324.0000 12.77881384    13
CTC2_L_00400013-04
1 46205U 23306DP  26070.40847222  .00000000  00000+0  00000-0 0  9994
2 46205  70.0000 144.0000 0000000   0.0000  54.0000 12.77881384    14
CTC2_L_00400014-01
1 46206U 26804QE  26070.40847222  .00000000  00000+0  00000-0 0  9991
2 46206  70.0000 156.0000 0000000   0.0000 156.0000 12.77881384    11
CTC2_L_00400014-02
1 46207U 26372UM  26070.40847222  .00000000  00000+0  00000-0 0  9992
2 46207  70.0000 156.0000 0000000   0.0000 246.0000 12.77881384    12
CTC2_L_00400014-03
1 46208U 25244TW  26070.40847222  .00000000  00000+0  00000-0 0  9990
2 46208  70.0000 156.0000 0000000   0.0000 336.0000 12.77881384    13
CTC2_L_00400014-04
1 46209U 26565AR  26070.40847222  .00000000  00000+0  00000-0 0  9998
2 46209  70.0000 156.0000 0000000   0.0000  66.0000 12.77881384    14
CTC2_L_00400015-01
1 46210U 24781LW  26070.40847222  .00000000  00000+0  00000-0 0  9998
2 46210  70.0000 168.0000 0000000   0.0000 168.0000 12.77881384    12
CTC2_L_00400015-02
1 46211U 25082AN  26070.40847222  .00000000  00000+0  00000-0 0  9994
2 46211  70.0000 168.0000 0000000   0.0000 258.0000 12.77881384    13
CTC2_L_00400015-03
1 46212U 25472MW  26070.40847222  .00000000  00000+0  00000-0 0  9998
2 46212  70.0000 168.0000 0000000   0.0000 348.0000 12.77881384    14
CTC2_L_00400015-04
1 46213U 25221VW  26070.40847222  .00000000  00000+0  00000-0 0  9991
2 46213  70.0000 168.0000 0000000   0.0000  78.0000 12.77881384    15
CTC2_L_00400016-01
1 46214U 25728UJ  26070.40847222  .00000000  00000+0  00000-0 0  9994
2 46214  70.0000 180.0000 0000000   0.0000 180.0000 12.77881384    14
CTC2_L_00400016-02
1 46215U 26945HV  26070.40847222  .00000000  00000+0  00000-0 0  9997
2 46215  70.0000 180.0000 0000000   0.0000 270.0000 12.77881384    15
